{
  "norad_id": 63767,
  "name": "STARLINK-33808",
  "history": [
    {
      "epoch": "2026-03-28T21:18:26.856576Z",
      "apogee_km": 484.26779053898554,
      "perigee_km": 481.70365175563893,
      "latitude_deg": 2.0058677733204325e-07,
      "longitude_deg": 150.9015955978258,
      "height_km": 482.9152344722152,
      "semi_major_axis_km": 6861.122721147312,
      "eccentricity": 0.00018686,
      "inclination_deg": 42.9979,
      "raan_deg": 296.8153,
      "arg_perigee_deg": 263.1593,
      "mean_anomaly_deg": 96.9046,
      "mean_motion_rev_day": 15.27601165
    }
  ]
}